{"fetched_at":"2026-04-16T06:04:01Z","count":5425,"tles":[{"name":"K-RADCUBE","line1":"1 68541U 26069D   26092.67815972 -.00078411  19505-5 -17218-4 0  9992","line2":"2 68541  28.3341 359.8703 8450105  77.6642 243.1767  1.02517944    33","category":"Other"}]}